# From MPEC 2021-W31
98P/Takamizawa,e,10.5610,114.6817,157.8100,3.794001,0.1333699,0.56220478,88.2073,10/28.0/2022,2000,g  9.0,8.0
# From MPEC 2022-UE6
99P/Kowal,e,4.3399,28.1017,174.8764,6.103026,0.0653712,0.22891389,13.0020,10/28.0/2022,2000,g  4.5,6.0
# From MPEC 2022-QD9
100P/Hartley,e,25.5666,37.6874,181.9688,3.431703,0.1550385,0.41206354,12.1016,10/28.0/2022,2000,g  9.0,8.0
# From MPEC 2022-K19
101P/Chernykh,e,5.0511,116.2093,277.7556,5.808063,0.0704137,0.59635726,71.7481,10/28.0/2022,2000,g 10.0,4.8
# From MPEC 2022-C56
102P/Shoemaker,e,25.8829,339.3679,20.6302,3.815866,0.1322253,0.45714514,85.0720,10/28.0/2022,2000,g  6.5,8.0
# From MPEC 2018-HA5
103P/Hartley,e,13.6098,219.7489,181.2940,3.475089,0.1521441,0.69370917,306.8200,10/28.0/2022,2000,g  8.5,8.0
# From MPEC 2022-P82
104P/Kowal,e,5.7022,207.2069,227.2527,3.208271,0.1715132,0.66557413,49.6289,10/28.0/2022,2000,g 16.0,4.0
# From MPC109147
105P/Singer Brewster,e,9.1685,192.3966,46.4471,3.469159,0.1525344,0.40888984,235.2126,10/28.0/2022,2000,g 11.5,6.0
# From MPEC 2022-GA9
106P/Schuster,e,19.5370,48.8724,353.7088,3.764879,0.1349204,0.59391772,58.7116,10/28.0/2022,2000,g 14.0,4.8
# From MPEC 2015-M77
107P/Wilson-Harrington,e,2.7993,266.7742,95.4410,2.624559,0.2318032,0.63169845,14.9142,10/28.0/2022,2000,g  9.0,4.0
# From MPEC 2022-P82
108P/Ciffreo,e,11.4365,50.2795,354.4630,3.740287,0.1362532,0.55605397,56.2490,10/28.0/2022,2000,g  8.0,12.0
# From  105, 420
109P/Swift-Tuttle,e,113.8217,139.1673,153.0288,26.18796,0.0073545,0.96260576,80.2535,10/28.0/2022,2000,g  4.0,6.0
# From MPEC 2022-P82
110P/Hartley,e,11.7047,287.5257,167.4567,3.603683,0.1440735,0.31860651,53.9773,10/28.0/2022,2000,g  1.0,12.0
# From MPC 75718
111P/Helin-Roman-Crockett,e,4.2259,89.7551,1.0485,4.150333,0.1165681,0.10671195,58.1617,10/28.0/2022,2000,g  5.0,8.0
# From MPEC 2021-S45
112P/Urata-Niijima,e,24.2109,31.8332,21.4680,3.524659,0.1489459,0.59043221,147.8324,10/28.0/2022,2000,g 14.0,6.0
# From MPEC 2022-ST7
113P/Spitaler,e,5.2898,306.6772,115.5273,3.691196,0.1389804,0.41976445,20.6434,10/28.0/2022,2000,g 13.5,4.0
# From MPEC 2022-K19
114P/Wiseman-Skiff,e,18.2849,271.0287,172.7440,3.543290,0.1477726,0.55527161,150.3874,10/28.0/2022,2000,g 11.5,6.0
# From MPEC 2021-UA9
115P/Maury,e,11.6772,176.0066,121.0014,4.272034,0.1116226,0.51811984,91.6070,10/28.0/2022,2000,g 10.5,6.0
# From MPEC 2022-QD9
116P/Wild,e,3.6034,20.9802,173.2801,3.490030,0.1511682,0.37049502,15.5876,10/28.0/2022,2000,g  2.5,10.0
# From MPEC 2022-UE6
117P/Helin-Roman-Alu,e,8.7039,58.8407,222.9729,4.082889,0.1194683,0.25551368,13.3894,10/28.0/2022,2000,g  2.5,8.0
# From MPEC 2022-UE6
118P/Shoemaker-Levy,e,10.0918,142.0968,314.8351,3.346262,0.1610142,0.45342539,355.5992,10/28.0/2022,2000,g 12.0,4.0
# From MPEC 2022-UE6
119P/Parker-Hartley,e,7.3935,104.5714,322.0636,3.805045,0.1327897,0.38829746,10.2244,10/28.0/2022,2000,g  3.5,8.0
# From MPEC 2022-CN4
120P/Mueller,e,8.4898,358.6719,36.6502,3.964950,0.1248382,0.37485563,67.2291,10/28.0/2022,2000,g 12.0,4.0
# From MPEC 2021-Y10
121P/Shoemaker-Holt,e,20.1652,94.1150,11.5931,4.583600,0.1004371,0.18611361,335.5623,10/28.0/2022,2000,g  6.5,8.0
# From MPC 75718
122P/de Vico,e,85.4815,79.6473,12.9916,17.62380,0.0133216,0.96230956,132.0306,10/28.0/2022,2000,g  7.5,5.2
# From MPEC 2021-F20
123P/West-Hartley,e,15.2853,45.9218,104.1023,3.879711,0.1289748,0.44457053,176.0150,10/28.0/2022,2000,g 12.2,4.0
# From MPEC 2022-K19
124P/Mrkos,e,31.7062,0.1083,185.2260,3.358722,0.1601190,0.49289422,147.1743,10/28.0/2022,2000,g 13.5,2.8
# From MPEC 2015-M77
125P/Spacewatch,e,9.9863,153.1489,87.1939,3.127622,0.1781898,0.51212397,271.5554,10/28.0/2022,2000,g  9.0,4.0
# From MPC 66205
126P/IRAS,e,45.8762,357.8722,356.5897,5.634313,0.0736958,0.69638242,341.5532,10/28.0/2022,2000,g  9.0,4.0
# From MPEC 2022-UE6
127P/Holt-Olmstead,e,14.3012,13.6046,6.2764,3.453393,0.1535801,0.35971654,12.0649,10/28.0/2022,2000,g 11.0,6.0
# From MPC 89014
128P/Shoemaker-Holt,e,4.3700,214.3220,210.2653,4.488877,0.1036329,0.32171380,219.3050,10/28.0/2022,2000,g  8.5,4.0
# From MPEC 2022-K19
129P/Shoemaker-Levy,e,3.4423,184.8628,307.4549,4.287858,0.1110052,0.08477185,356.3229,10/28.0/2022,2000,g 11.0,4.0
# From MPEC 2022-ED3
130P/McNaught-Hughes,e,6.0627,70.1870,246.0929,3.383166,0.1583868,0.46119832,275.3041,10/28.0/2022,2000,g 10.0,6.0
# From MPC102101
131P/Mueller,e,7.3606,214.1466,179.0565,3.678982,0.1396731,0.34461935,191.5480,10/28.0/2022,2000,g 11.0,4.0
# From MPEC 2022-O08
132P/Helin-Roman-Alu,e,5.3827,173.9952,216.3808,3.887321,0.1285963,0.56470648,44.8586,10/28.0/2022,2000,g 11.0,6.0
# From MPC 94676
133P/Elst-Pizarro,e,1.3897,160.0984,131.8988,3.165546,0.1749972,0.15646686,261.9799,10/28.0/2022,2000,g 15.4,2.0
# From MPC 89012
134P/Kowal-Vavrova,e,4.3348,202.0517,18.8528,6.264135,0.0628655,0.58509876,194.2264,10/28.0/2022,2000,g 11.5,4.0
# From MPEC 2022-OB6
135P/Shoemaker-Levy,e,6.0634,213.0265,22.3229,3.800024,0.1330530,0.29470540,27.0960,10/28.0/2022,2000,g  7.0,8.0
# From MPEC 2022-K19
136P/Mueller,e,9.4244,137.4375,225.0644,4.189994,0.1149169,0.29338143,268.3423,10/28.0/2022,2000,g 11.0,4.0
# From MPEC 2022-K19
137P/Shoemaker-Levy,e,4.8572,232.9614,141.1344,4.521266,0.1025213,0.57385483,144.8972,10/28.0/2022,2000,g 11.0,4.0
# From MPEC 2016-U66
138P/Shoemaker-Levy,e,10.0904,309.2944,95.5734,3.620553,0.1430677,0.53124650,182.1536,10/28.0/2022,2000,g 15.0,6.0
# From MPEC 2020-HN5
139P/Vaisala-Oterma,e,2.3363,242.1412,165.7472,4.519160,0.1025930,0.24775488,182.7582,10/28.0/2022,2000,g  9.5,4.0
# From MPEC 2015-E14
140P/Bowell-Skiff,e,3.8457,343.2246,172.7418,6.417034,0.0606321,0.69335539,160.2202,10/28.0/2022,2000,g 11.5,6.0
# From MPEC 2022-K19
141P/Machholz,e,13.9523,241.8017,153.5907,3.057571,0.1843483,0.73600389,125.4545,10/28.0/2022,2000,g 12.0,12.0
# From MPEC 2022-SU8
141P-I/Machholz,e,13.9521,241.8064,153.5651,3.048222,0.1851971,0.73521114,126.1138,10/28.0/2022,2000,g 17.5,4.0
# From MPEC 2021-Y10
142P/Ge-Wang,e,12.2514,175.9320,174.0039,4.999675,0.0881640,0.49714519,47.0156,10/28.0/2022,2000,g  8.5,6.0
# From MPEC 2022-UE6
143P/Kowal-Mrkos,e,4.7144,245.0044,320.3293,4.273846,0.1115516,0.41278068,182.6428,10/28.0/2022,2000,g 13.5,2.0
# From MPC104795
144P/Kushida,e,3.9302,242.9983,216.3572,3.827874,0.1316036,0.63512023,300.1657,10/28.0/2022,2000,g  8.5,8.0
# From MPC108598
145P/Shoemaker-Levy,e,11.2798,26.7960,10.2601,4.136091,0.1171707,0.54227783,220.3676,10/28.0/2022,2000,g 13.5,4.0
# From MPC100284
146P/Shoemaker-LINEAR,e,23.1169,53.3765,317.0151,4.029767,0.1218384,0.64747085,281.1182,10/28.0/2022,2000,g 15.0,4.0
# From MPC 75720
147P/Kushida-Muramatsu,e,2.3083,91.8291,348.1824,4.032757,0.1217029,0.21719967,310.9087,10/28.0/2022,2000,g 14.0,4.0
# From MPEC 2021-S45
148P/Anderson-LINEAR,e,3.6580,89.2056,8.0389,3.618473,0.1431911,0.54989500,19.5180,10/28.0/2022,2000,g 16.0,2.0
# From MPC 75720
149P/Mueller,e,34.3186,143.9955,30.9985,4.132408,0.1173273,0.32256111,180.8213,10/28.0/2022,2000,g  8.0,8.0
# From MPEC 2022-UE6
150P/LONEOS,e,18.5226,272.1463,245.8758,3.875892,0.1291655,0.54880953,295.2425,10/28.0/2022,2000,g 13.5,4.0
# From MPEC 2022-K19
151P/Helin,e,4.7281,143.1524,216.1019,5.763004,0.0712411,0.57381479,183.2075,10/28.0/2022,2000,g 10.0,6.0
# From MPEC 2022-UE6
152P/Helin-Lawrence,e,9.8800,91.8563,164.0009,4.476868,0.1040501,0.30859828,29.8688,10/28.0/2022,2000,g 11.5,4.0
# From MPC 46101
153P/Ikeya-Zhang,e,28.0952,93.4178,34.7617,50.39644,0.0027549,0.98973236,0.0000,03/02.8042/2002,2000,g  9.0,4.0
# From MPEC 2022-K19
154P/Brewington,e,17.6322,343.0329,47.8980,4.798305,0.0937718,0.67608650,304.4434,10/28.0/2022,2000,g  2.5,12.0
# From MPEC 2021-F20
155P/Shoemaker,e,6.4004,97.1735,14.5596,6.570329,0.0585226,0.72643737,63.0856,10/28.0/2022,2000,g 13.8,4.0
# From MPEC 2022-GA9
156P/Russell-LINEAR,e,17.2686,35.3444,0.4675,3.461964,0.1530102,0.61510820,108.4698,10/28.0/2022,2000,g 15.5,2.0
# From MPEC 2022-UE6
157P/Tritton,e,12.4207,287.5473,155.0605,3.545409,0.1476402,0.55666546,7.1151,10/28.0/2022,2000,g 10.0,4.0
# From MPEC 2022-T23
157P-B/Tritton,e,12.4418,286.8648,153.5791,2.926271,0.1968939,0.47294616,9.9631,10/28.0/2022,2000,g 15.7,4.0
# From MPEC 2022-UE6
158P/Kowal-LINEAR,e,7.5984,133.8181,188.4208,5.290085,0.0810047,0.08938301,30.7122,10/28.0/2022,2000,g  9.0,4.0
# From MPEC 2021-N06
159P/LONEOS,e,23.4801,54.9489,4.5679,5.852663,0.0696103,0.38242470,112.6990,10/28.0/2022,2000,g 10.0,4.0
# From MPEC 2022-K19
160P/LINEAR,e,15.6136,333.3610,12.7687,3.776451,0.1343007,0.52617300,142.4063,10/28.0/2022,2000,g 15.5,2.0
# From MPC 75721
161P/Hartley-IRAS,e,95.8022,1.5839,47.0174,7.718332,0.0459641,0.83535145,291.4062,10/28.0/2022,2000,g  8.5,6.0
# From MPEC 2022-M21
162P/SidingSpring,e,27.5630,30.8896,357.1794,3.092000,0.1812779,0.58313972,124.8985,10/28.0/2022,2000,g 12.0,4.0
# From MPEC 2021-S45
163P/NEAT,e,12.7141,102.0699,349.5580,3.765194,0.1349034,0.45242636,159.1478,10/28.0/2022,2000,g 14.5,4.0
# From MPEC 2021-F20
164P/Christensen,e,16.2671,88.2685,325.8602,3.654819,0.1410605,0.54082098,227.0475,10/28.0/2022,2000,g 11.0,4.0
# From MPC 75721
165P/LINEAR,e,15.8944,0.8703,125.8142,17.84541,0.0130742,0.61618825,107.1971,10/28.0/2022,2000,g 11.5,2.0
# From MPC 75722
166P/NEAT,e,15.3821,64.3633,321.6111,13.81488,0.0191948,0.38455944,143.0843,10/28.0/2022,2000,g  5.5,4.0
# From MPC 75722
167P/CINEOS,e,19.1072,295.7198,344.7777,16.24629,0.0150513,0.27023438,118.0629,10/28.0/2022,2000,g  9.5,2.0
# From MPC102101
168P/Hergenrother,e,21.6244,355.4515,15.0229,3.582388,0.1453601,0.62120282,171.3798,10/28.0/2022,2000,g 15.5,4.0
# From MPEC 2022-O01
169P/NEAT,e,11.2986,176.1011,218.0486,2.602188,0.2347990,0.76833067,25.9024,10/28.0/2022,2000,g 16.0,2.0
# From MPEC 2022-UE6
170P/Christensen,e,10.1230,142.9241,225.4640,4.204633,0.1143173,0.30469542,340.1097,10/28.0/2022,2000,g 12.0,4.0
# From MPC102102
171P/Spahr,e,21.9435,101.6881,347.0453,3.554064,0.1471012,0.50202355,203.5485,10/28.0/2022,2000,g 13.5,4.0
# From MPEC 2022-C56
